[{"OBJECT_NAME":"KKS-1 (KISEKI)","OBJECT_ID":"2009-002H","EPOCH":"2023-04-27T14:04:44.635872","MEAN_MOTION":14.76929138,"ECCENTRICITY":0.000965,"INCLINATION":98.1784,"RA_OF_ASC_NODE":9.2462,"ARG_OF_PERICENTER":37.2613,"MEAN_ANOMALY":322.9264,"EPHEMERIS_TYPE":0,"CLASSIFICATION_TYPE":"U","NORAD_CAT_ID":33499,"ELEMENT_SET_NO":999,"REV_AT_EPOCH":76702,"BSTAR":0.00024183,"MEAN_MOTION_DOT":1.649e-5,"MEAN_MOTION_DDOT":0},{"OBJECT_NAME":"NOAA 19","OBJECT_ID":"2009-005A","EPOCH":"2023-04-27T02:50:24.540576","MEAN_MOTION":14.12740977,"ECCENTRICITY":0.0014248,"INCLINATION":99.105,"RA_OF_ASC_NODE":162.2174,"ARG_OF_PERICENTER":30.8789,"MEAN_ANOMALY":329.3217,"EPHEMERIS_TYPE":0,"CLASSIFICATION_TYPE":"U","NORAD_CAT_ID":33591,"ELEMENT_SET_NO":999,"REV_AT_EPOCH":73273,"BSTAR":0.000172,"MEAN_MOTION_DOT":2.73e-6,"MEAN_MOTION_DDOT":0},{"OBJECT_NAME":"SWISSCUBE","OBJECT_ID":"2009-051B","EPOCH":"2023-04-27T11:07:43.959072","MEAN_MOTION":14.57608487,"ECCENTRICITY":0.0007864,"INCLINATION":98.5283,"RA_OF_ASC_NODE":346.6054,"ARG_OF_PERICENTER":153.7119,"MEAN_ANOMALY":206.4479,"EPHEMERIS_TYPE":0,"CLASSIFICATION_TYPE":"U","NORAD_CAT_ID":35932,"ELEMENT_SET_NO":999,"REV_AT_EPOCH":72186,"BSTAR":0.00032572,"MEAN_MOTION_DOT":1.435e-5,"MEAN_MOTION_DDOT":0},{"OBJECT_NAME":"BEESAT-1","OBJECT_ID":"2009-051C","EPOCH":"2023-04-27T15:05:04.502976","MEAN_MOTION":14.57532038,"ECCENTRICITY":0.000588,"INCLINATION":98.5213,"RA_OF_ASC_NODE":348.1513,"ARG_OF_PERICENTER":162.4919,"MEAN_ANOMALY":197.6483,"EPHEMERIS_TYPE":0,"CLASSIFICATION_TYPE":"U","NORAD_CAT_ID":35933,"ELEMENT_SET_NO":999,"REV_AT_EPOCH":72200,"BSTAR":0.00027876,"MEAN_MOTION_DOT":1.219e-5,"MEAN_MOTION_DDOT":0},{"OBJECT_NAME":"ITUPSAT1","OBJECT_ID":"2009-051E","EPOCH":"2023-04-26T21:07:35.388480","MEAN_MOTION":14.56587818,"ECCENTRICITY":0.0007998,"INCLINATION":98.5315,"RA_OF_ASC_NODE":347.3492,"ARG_OF_PERICENTER":172.7536,"MEAN_ANOMALY":187.3779,"EPHEMERIS_TYPE":0,"CLASSIFICATION_TYPE":"U","NORAD_CAT_ID":35935,"ELEMENT_SET_NO":999,"REV_AT_EPOCH":72149,"BSTAR":0.00027171,"MEAN_MOTION_DOT":1.163e-5,"MEAN_MOTION_DDOT":0},{"OBJECT_NAME":"XIWANG-1 (HOPE-1)","OBJECT_ID":"2009-072B","EPOCH":"2023-04-26T15:10:00.083424","MEAN_MOTION":13.16381729,"ECCENTRICITY":0.0007364,"INCLINATION":100.2337,"RA_OF_ASC_NODE":82.1447,"ARG_OF_PERICENTER":346.9431,"MEAN_ANOMALY":13.1491,"EPHEMERIS_TYPE":0,"CLASSIFICATION_TYPE":"U","NORAD_CAT_ID":36122,"ELEMENT_SET_NO":999,"REV_AT_EPOCH":64201,"BSTAR":0.0001446,"MEAN_MOTION_DOT":1.2e-7,"MEAN_MOTION_DDOT":0},{"OBJECT_NAME":"CARTOSAT-2B","OBJECT_ID":"2010-035A","EPOCH":"2023-04-27T10:38:12.824736","MEAN_MOTION":14.78689757,"ECCENTRICITY":0.0012178,"INCLINATION":97.9144,"RA_OF_ASC_NODE":178.6471,"ARG_OF_PERICENTER":311.3771,"MEAN_ANOMALY":48.6427,"EPHEMERIS_TYPE":0,"CLASSIFICATION_TYPE":"U","NORAD_CAT_ID":36795,"ELEMENT_SET_NO":999,"REV_AT_EPOCH":69046,"BSTAR":0.00023253,"MEAN_MOTION_DOT":1.655e-5,"MEAN_MOTION_DDOT":0},{"OBJECT_NAME":"TISAT 1","OBJECT_ID":"2010-035E","EPOCH":"2023-04-26T20:18:21.334464","MEAN_MOTION":14.95773344,"ECCENTRICITY":0.0012484,"INCLINATION":98.1439,"RA_OF_ASC_NODE":344.4702,"ARG_OF_PERICENTER":138.3229,"MEAN_ANOMALY":221.8945,"EPHEMERIS_TYPE":0,"CLASSIFICATION_TYPE":"U","NORAD_CAT_ID":36799,"ELEMENT_SET_NO":999,"REV_AT_EPOCH":69455,"BSTAR":0.00049849,"MEAN_MOTION_DOT":5.506e-5,"MEAN_MOTION_DDOT":0},{"OBJECT_NAME":"FENGYUN 3B","OBJECT_ID":"2010-059A","EPOCH":"2023-04-27T08:23:32.897184","MEAN_MOTION":14.14330506,"ECCENTRICITY":0.0022235,"INCLINATION":99.0872,"RA_OF_ASC_NODE":133.8544,"ARG_OF_PERICENTER":187.07,"MEAN_ANOMALY":300.5843,"EPHEMERIS_TYPE":0,"CLASSIFICATION_TYPE":"U","NORAD_CAT_ID":37214,"ELEMENT_SET_NO":999,"REV_AT_EPOCH":64532,"BSTAR":0.00023849,"MEAN_MOTION_DOT":4.11e-6,"MEAN_MOTION_DDOT":0},{"OBJECT_NAME":"JUGNU","OBJECT_ID":"2011-058B","EPOCH":"2023-04-27T03:20:18.896640","MEAN_MOTION":14.12938865,"ECCENTRICITY":0.00188,"INCLINATION":19.9611,"RA_OF_ASC_NODE":72.6423,"ARG_OF_PERICENTER":16.5373,"MEAN_ANOMALY":88.389,"EPHEMERIS_TYPE":0,"CLASSIFICATION_TYPE":"U","NORAD_CAT_ID":37839,"ELEMENT_SET_NO":999,"REV_AT_EPOCH":59666,"BSTAR":0.00015503,"MEAN_MOTION_DOT":5.59e-6,"MEAN_MOTION_DDOT":0},{"OBJECT_NAME":"SRMSAT","OBJECT_ID":"2011-058D","EPOCH":"2023-04-27T12:40:00.681024","MEAN_MOTION":14.10880048,"ECCENTRICITY":0.001175,"INCLINATION":19.9704,"RA_OF_ASC_NODE":156.309,"ARG_OF_PERICENTER":194.1802,"MEAN_ANOMALY":315.418,"EPHEMERIS_TYPE":0,"CLASSIFICATION_TYPE":"U","NORAD_CAT_ID":37841,"ELEMENT_SET_NO":999,"REV_AT_EPOCH":59586,"BSTAR":0.00013352,"MEAN_MOTION_DOT":5.08e-6,"MEAN_MOTION_DDOT":0},{"OBJECT_NAME":"M-CUBED & EXP-1 PRIME","OBJECT_ID":"2011-061F","EPOCH":"2023-04-26T15:18:57.370464","MEAN_MOTION":15.23854182,"ECCENTRICITY":0.0124834,"INCLINATION":101.7037,"RA_OF_ASC_NODE":49.5553,"ARG_OF_PERICENTER":197.266,"MEAN_ANOMALY":162.4298,"EPHEMERIS_TYPE":0,"CLASSIFICATION_TYPE":"U","NORAD_CAT_ID":37855,"ELEMENT_SET_NO":999,"REV_AT_EPOCH":62870,"BSTAR":0.00064958,"MEAN_MOTION_DOT":0.00019418,"MEAN_MOTION_DDOT":0},{"OBJECT_NAME":"HORYU-2","OBJECT_ID":"2012-025D","EPOCH":"2023-04-26T19:47:41.294400","MEAN_MOTION":14.78278127,"ECCENTRICITY":0.0009648,"INCLINATION":98.1685,"RA_OF_ASC_NODE":204.7399,"ARG_OF_PERICENTER":305.9007,"MEAN_ANOMALY":54.1307,"EPHEMERIS_TYPE":0,"CLASSIFICATION_TYPE":"U","NORAD_CAT_ID":38340,"ELEMENT_SET_NO":999,"REV_AT_EPOCH":57850,"BSTAR":0.00036923,"MEAN_MOTION_DOT":2.63e-5,"MEAN_MOTION_DDOT":0},{"OBJECT_NAME":"METOP-B","OBJECT_ID":"2012-049A","EPOCH":"2023-04-27T11:58:48.866880","MEAN_MOTION":14.21501545,"ECCENTRICITY":0.0001397,"INCLINATION":98.6826,"RA_OF_ASC_NODE":177.7103,"ARG_OF_PERICENTER":115.6837,"MEAN_ANOMALY":1.5913,"EPHEMERIS_TYPE":0,"CLASSIFICATION_TYPE":"U","NORAD_CAT_ID":38771,"ELEMENT_SET_NO":999,"REV_AT_EPOCH":55034,"BSTAR":0.00010806,"MEAN_MOTION_DOT":1.93e-6,"MEAN_MOTION_DDOT":0},{"OBJECT_NAME":"SARAL","OBJECT_ID":"2013-009A","EPOCH":"2023-04-27T04:04:07.212288","MEAN_MOTION":14.32181163,"ECCENTRICITY":0.0003008,"INCLINATION":98.5485,"RA_OF_ASC_NODE":303.2019,"ARG_OF_PERICENTER":83.4706,"MEAN_ANOMALY":276.682,"EPHEMERIS_TYPE":0,"CLASSIFICATION_TYPE":"U","NORAD_CAT_ID":39086,"ELEMENT_SET_NO":999,"REV_AT_EPOCH":53138,"BSTAR":8.4122e-5,"MEAN_MOTION_DOT":1.83e-6,"MEAN_MOTION_DDOT":0},{"OBJECT_NAME":"AAUSAT 3","OBJECT_ID":"2013-009B","EPOCH":"2023-04-26T22:53:17.523456","MEAN_MOTION":14.36715421,"ECCENTRICITY":0.0012734,"INCLINATION":98.3872,"RA_OF_ASC_NODE":313.4351,"ARG_OF_PERICENTER":56.4457,"MEAN_ANOMALY":303.7983,"EPHEMERIS_TYPE":0,"CLASSIFICATION_TYPE":"U","NORAD_CAT_ID":39087,"ELEMENT_SET_NO":999,"REV_AT_EPOCH":53258,"BSTAR":0.00054711,"MEAN_MOTION_DOT":1.572e-5,"MEAN_MOTION_DDOT":0},{"OBJECT_NAME":"STRAND-1","OBJECT_ID":"2013-009E","EPOCH":"2023-04-26T18:35:53.188224","MEAN_MOTION":14.35559667,"ECCENTRICITY":0.0010038,"INCLINATION":98.3914,"RA_OF_ASC_NODE":311.5422,"ARG_OF_PERICENTER":61.9559,"MEAN_ANOMALY":298.2641,"EPHEMERIS_TYPE":0,"CLASSIFICATION_TYPE":"U","NORAD_CAT_ID":39090,"ELEMENT_SET_NO":999,"REV_AT_EPOCH":53234,"BSTAR":0.00018556,"MEAN_MOTION_DOT":4.92e-6,"MEAN_MOTION_DDOT":0}]
