KKS-1 (KISEKI)          
1 33499U 09002H   23117.58662773  .00001649  00000+0  24183-3 0  9997
2 33499  98.1784   9.2462 0009650  37.2613 322.9264 14.76929138767022
NOAA 19                 
1 33591U 09005A   23117.11833959  .00000273  00000+0  17200-3 0  9992
2 33591  99.1050 162.2174 0014248  30.8789 329.3217 14.12740977732735
SWISSCUBE               
1 35932U 09051B   23117.46370323  .00001435  00000+0  32572-3 0  9993
2 35932  98.5283 346.6054 0007864 153.7119 206.4479 14.57608487721865
BEESAT-1                
1 35933U 09051C   23117.62852434  .00001219  00000+0  27876-3 0  9991
2 35933  98.5213 348.1513 0005880 162.4919 197.6483 14.57532038722008
ITUPSAT1                
1 35935U 09051E   23116.88027070  .00001163  00000+0  27171-3 0  9996
2 35935  98.5315 347.3492 0007998 172.7536 187.3779 14.56587818721492
XIWANG-1 (HOPE-1)       
1 36122U 09072B   23116.63194541  .00000012  00000+0  14460-3 0  9998
2 36122 100.2337  82.1447 0007364 346.9431  13.1491 13.16381729642011
CARTOSAT-2B             
1 36795U 10035A   23117.44320399  .00001655  00000+0  23253-3 0  9991
2 36795  97.9144 178.6471 0012178 311.3771  48.6427 14.78689757690460
TISAT 1                 
1 36799U 10035E   23116.84608026  .00005506  00000+0  49849-3 0  9992
2 36799  98.1439 344.4702 0012484 138.3229 221.8945 14.95773344694558
FENGYUN 3B              
1 37214U 10059A   23117.34968631  .00000411  00000+0  23849-3 0  9990
2 37214  99.0872 133.8544 0022235 187.0700 300.5843 14.14330506645329
JUGNU                   
1 37839U 11058B   23117.13910760  .00000559  00000+0  15503-3 0  9991
2 37839  19.9611  72.6423 0018800  16.5373  88.3890 14.12938865596660
SRMSAT                  
1 37841U 11058D   23117.52778566  .00000508  00000+0  13352-3 0  9997
2 37841  19.9704 156.3090 0011750 194.1802 315.4180 14.10880048595867
M-CUBED & EXP-1 PRIME   
1 37855U 11061F   23116.63816401  .00019418  00000+0  64958-3 0  9996
2 37855 101.7037  49.5553 0124834 197.2660 162.4298 15.23854182628707
HORYU-2                 
1 38340U 12025D   23116.82478350  .00002630  00000+0  36923-3 0  9994
2 38340  98.1685 204.7399 0009648 305.9007  54.1307 14.78278127578504
METOP-B                 
1 38771U 12049A   23117.49917670  .00000193  00000+0  10806-3 0  9999
2 38771  98.6826 177.7103 0001397 115.6837   1.5913 14.21501545550348
SARAL                   
1 39086U 13009A   23117.16952792  .00000183  00000+0  84122-4 0  9996
2 39086  98.5485 303.2019 0003008  83.4706 276.6820 14.32181163531385
AAUSAT 3                
1 39087U 13009B   23116.95367504  .00001572  00000+0  54711-3 0  9997
2 39087  98.3872 313.4351 0012734  56.4457 303.7983 14.36715421532584
STRAND-1                
1 39090U 13009E   23116.77492116  .00000492  00000+0  18556-3 0  9996
2 39090  98.3914 311.5422 0010038  61.9559 298.2641 14.35559667532342
